FENGYUN 3C              
1 39260U 13052A   23219.75316600  .00000116  00000+0  79591-4 0  9998
2 39260  98.4284 231.1293 0011704 148.9428 211.2441 14.16061551510828
CASSIOPE                
1 39265U 13055A   23219.86279356  .00016897  00000+0  40385-3 0  9995
2 39265  80.9597 181.1651 0564820 151.3601 211.9902 14.53185690512464
ZACUBE-1 (TSHEPISOSAT)  
1 39417U 13066B   23219.36893387  .00004110  00000+0  47073-3 0  9993
2 39417  97.6885 179.2625 0056172 118.3054 242.3845 14.85334392524791
CINEMA-3 (KHUSAT-2)     
1 39426U 13066L   23219.01977060  .00002662  00000+0  40231-3 0  9995
2 39426  97.8268 147.1223 0100127 344.7633  15.0565 14.71743532520621
TRITON-1                
1 39427U 13066M   23219.79453942  .00004143  00000+0  61960-3 0  9997
2 39427  97.8326 143.7157 0107983  13.2092 347.1903 14.71322025520130
DELFI-N3XT              
1 39428U 13066N   23219.33187979  .00006537  00000+0  92731-3 0  9991
2 39428  97.8304 142.3622 0110665  25.9289 334.7406 14.73136700519849
GOMX-1                  
1 39430U 13066Q   23219.79377039  .00002006  00000+0  35239-3 0  9999
2 39430  97.7728 107.9212 0145147 169.4939 190.9353 14.62037131517074
BRITE-PL1 (LEM)         
1 39431U 13066R   23218.77560263  .00000748  00000+0  16603-3 0  9995
2 39431  97.6807  40.0369 0200061  21.0873 339.8425 14.48073760512654
ICUBE-1                 
1 39432U 13066S   23218.92912612  .00006469  00000+0  57556-3 0  9990
2 39432  97.4875 207.5899 0026759 315.2471  44.6592 14.96125470527930
HUMSAT-D                
1 39433U 13066T   23219.73192753  .00008170  00000+0  65554-3 0  9995
2 39433  97.4517 216.4369 0021994 273.1717  86.6990 15.00138086528668
VELOX-PII               
1 39438U 13066Y   23218.84804797  .00002502  00000+0  31541-3 0  9991
2 39438  97.7442 170.5371 0066265 181.2271 178.8791 14.81310112523578
FIRST-MOVE              
1 39439U 13066Z   23218.85522968  .00009091  00000+0  90785-3 0  9995
2 39439  97.6837 183.0050 0057831 108.7356 252.0150 14.90458773524869
CUBEBUG-2 (LO-74)       
1 39440U 13066AA  23219.76759174  .00002914  00000+0  37669-3 0  9998
2 39440  97.7738 166.8551 0073654 218.4301 141.1652 14.79791241522980
NEE-02 KRYSAOR          
1 39441U 13066AB  23219.40815419  .00002032  00000+0  27744-3 0  9999
2 39441  97.7848 163.2455 0076328 237.2635 122.1204 14.77713825522574
FUNCUBE-1 (AO-73)       
1 39444U 13066AE  23219.13736732  .00004633  00000+0  50773-3 0  9999
2 39444  97.6749 181.6314 0054563 104.3065 256.4219 14.87123711523806
HINCUBE                 
1 39445U 13066AF  23219.79077947  .00005399  00000+0  59452-3 0  9991
2 39445  97.6764 182.0160 0054706 104.8731 255.8553 14.86856939523428
UWE-3                   
1 39446U 13066AG  23219.12764557  .00002962  00000+0  36276-3 0  9991
2 39446  97.7374 172.3669 0065304 170.9271 189.3139 14.82405033522568
AIST-1 (RS-41)          
1 39492U 13078C   23219.75202723  .00002158  00000+0  22133-3 0  9990
2 39492  82.4181 197.9034 0019676 160.3226 199.8756 14.89857286521725
SPROUT                  
1 39770U 14029E   23219.61245688  .00023525  00000+0  16819-2 0  9992
2 39770  97.9920 348.4729 0007076 136.4608 223.7177 15.04444632499889
UNISAT-6                
1 40012U 14033C   23219.75141445  .00003062  00000+0  43073-3 0  9996
2 40012  97.6770  31.2813 0054043 248.2571 111.2883 14.77052719491380
BUGSAT-1 (TITA)         
1 40014U 14033E   23219.80022391  .00005061  00000+0  40782-3 0  9997
2 40014  98.1320 241.0693 0035043  99.2019 261.3170 14.99920787498461
DUCHIFAT-1              
1 40021U 14033M   23219.17552960  .00007579  00000+0  63389-3 0  9999
2 40021  98.0598 184.8039 0012954 105.8814 254.3836 14.98722877496824
NANOSATC-BR1            
1 40024U 14033Q   23219.41300668  .00006098  00000+0  54039-3 0  9992
2 40024  98.0300 175.8509 0012341 110.5705 249.6841 14.96561070496593
QB50P1                  
1 40025U 14033R   23219.36490103  .00004101  00000+0  38572-3 0  9998
2 40025  97.9985 167.0616 0012613 120.3642 239.8827 14.94409155496299
DTUSAT-2                
1 40030U 14033W   23219.80968386  .00004316  00000+0  41456-3 0  9999
2 40030  97.9686 161.0291 0012412 116.4156 243.8339 14.93547327496217
QB50P2                  
1 40032U 14033Y   23219.38325478  .00005100  00000+0  48872-3 0  9994
2 40032  97.9677 160.6136 0012412 118.7929 241.4538 14.93547740496130
POLYITAN-1              
1 40042U 14033AJ  23219.13561866  .00006706  00000+0  61123-3 0  9998
2 40042  98.0096 168.8588 0014770 114.3615 245.9149 14.95386709496160
TIGRISAT                
1 40043U 14033AK  23219.75298029  .00002460  00000+0  34957-3 0  9993
2 40043  97.6693  32.1893 0056171 245.6547 113.8794 14.76717251491325
AISAT                   
1 40054U 14034B   23219.77716733  .00005468  00000+0  66466-3 0  9996
2 40054  98.3666  54.3998 0012242  62.7595 297.4864 14.83882398491116
CANX-4                  
1 40055U 14034C   23219.72428658  .00001699  00000+0  25047-3 0  9990
2 40055  98.3933  36.6915 0014962 111.8158 248.4644 14.76688538490155
CANX-5                  
1 40056U 14034D   23219.45992188  .00001625  00000+0  23983-3 0  9991
2 40056  98.3936  36.4058 0014944 112.7305 247.5484 14.76691597490116
VELOX-I                 
1 40057U 14034E   23219.84842468  .00004231  00000+0  53575-3 0  9996
2 40057  98.3711  55.2302 0011120  78.3202 281.9257 14.82325506491083
METEOR-M 2              
1 40069U 14037A   23219.82058025  .00000101  00000+0  66099-4 0  9996
2 40069  98.4246 223.3988 0005567 179.5924 180.5260 14.20800763470980
DX1                     
1 40071U 14037C   23219.80443174  .00001875  00000+0  23683-3 0  9990
2 40071  98.3536 113.1731 0009385  63.0239 297.1931 14.83157417491011
UKUBE-1                 
1 40074U 14037F   23219.74229392  .00004847  00000+0  52435-3 0  9999
2 40074  98.3391 126.9409 0004816  39.2090 320.9473 14.88781192491925
GRIFEX                  
1 40379U 15003D   23219.79871126  .00046064  00000+0  87693-3 0  9995
2 40379  99.0776 169.1667 0077426  93.4496 267.5607 15.44776572471340
CP10 (EXOCUBE)          
1 40380U 15003E   23219.80146419  .00027681  00000+0  71055-3 0  9998
2 40380  99.0818 158.1265 0094374 128.5415 232.4329 15.34776635470646
DEORBITSAIL             
1 40719U 15032E   23219.06823833  .00004745  00000+0  60302-3 0  9995
2 40719  97.7283  88.1231 0016380  91.5444 268.7646 14.81993570435353
XW-2C                   
1 40906U 15049H   23219.79118757  .00013683  00000+0  50614-3 0  9999
2 40906  97.4941 227.1429 0010265 351.3725   8.7336 15.27765215436272
XW-2D                   
1 40907U 15049J   23219.80511041  .00016314  00000+0  56316-3 0  9994
2 40907  97.4920 227.8398 0008876 344.7948  15.3024 15.30001591436373
LILACSAT-2              
1 40908U 15049K   23219.83421695  .00007083  00000+0  32772-3 0  9996
2 40908  97.5263 222.7668 0014035  18.5698 341.6046 15.20366845435644
XW-2E                   
1 40909U 15049L   23219.84177711  .00038399  00000+0  90434-3 0  9998
2 40909  97.4513 234.7035 0004913 295.8142  64.2598 15.41831298437094
XW-2F                   
1 40910U 15049M   23219.86195305  .00036515  00000+0  88030-3 0  9998
2 40910  97.4606 233.9740 0005669 300.4110  59.6576 15.41132555436835
XW-2B                   
1 40911U 15049N   23219.80907651  .00016319  00000+0  56763-3 0  9996
2 40911  97.4899 228.2476 0008935 346.6521  13.4482 15.29754408436253
KAITUO 1B               
1 40912U 15049P   23219.85278887  .00052915  00000+0  99106-3 0  9994
2 40912  97.4145 238.8129 0005987 232.0185 128.0526 15.48498702437591
LAPAN-A2                
1 40931U 15052B   23219.26580409  .00001298  00000+0  89846-4 0  9999
2 40931   6.0002  81.8641 0013589 297.5573  62.3174 14.77303275424911
LQSAT                   
1 40958U 15057A   23219.83984157  .00000903  00000+0  14417-3 0  9997
2 40958  97.6994 251.2189 0019104  60.0875 300.2228 14.74008971421309
ATHENOXAT 1             
1 41168U 15077C   23219.22225669  .02881524  14218-1  32527-2 0  9999
2 41168  14.9802 171.2568 0007525 214.7793 145.2049 16.11290404424371
GALASSIA                
1 41170U 15077E   23219.31515945  .00060475  00000+0  12056-2 0  9990
2 41170  14.9855 201.5493 0004843  72.5852 287.5003 15.44974921424123
VELOX-II                
1 41171U 15077F   23219.62808578  .00023005  00000+0  74600-3 0  9994
2 41171  14.9900 308.8556 0005894 195.4679 164.5464 15.29581266423140
CHUBUSAT-2              
1 41338U 16012B   23219.43692407  .00003987  00000+0  27223-3 0  9996
2 41338  31.0016 250.0606 0011952 328.4471  31.5448 15.04403659410106
CHUBUSAT-3              
1 41339U 16012C   23219.76897182  .00003831  00000+0  26257-3 0  9994
2 41339  31.0078 245.1540 0011892 338.8588  21.1557 15.04226031410141
HORYU-4                 
1 41340U 16012D   23219.34674848  .00007212  00000+0  44316-3 0  9995
2 41340  31.0023 214.0860 0010754  35.6318 324.5036 15.08644677410452
OUFTI-1                 
1 41458U 16025C   23219.30619176  .00032495  00000+0  77554-3 0  9999
2 41458  98.1780  68.7169 0090544 271.4599  87.6272 15.37228605400895
E-ST@R-II               
1 41459U 16025D   23219.82657723  .00028920  00000+0  77229-3 0  9994
2 41459  98.1819  66.4825 0098834 278.7372  80.2684 15.33165623400805
AAUSAT 4                
1 41460U 16025E   23219.87019822  .00284740  00000+0  17922-2 0  9990
2 41460  98.1473  81.9218 0038981 218.2473 141.6023 15.74833977401853
AIST-2D (RS-48)         
1 41465U 16026B   23219.88215223  .00031974  00000+0  38685-3 0  9999
2 41465  96.9895  90.3433 0007891  55.6701 304.5303 15.60594645408026
NUSAT-1 (FRESCO)        
1 41557U 16033B   23219.86452194  .00109128  00000+0  97569-3 0  9990
2 41557  97.3881 330.1204 0005619 282.6603  77.4030 15.68015732401702
NUSAT-2 (BATATA)        
1 41558U 16033C   23219.81935711  .00149652  00000+0  10351-2 0  9996
2 41558  97.4172 338.7698 0006315 269.8666  90.1874 15.74053725402067
